{
  "norad_id": 68072,
  "name": "STARLINK-36972",
  "history": [
    {
      "epoch": "2026-03-28T12:49:07.218048Z",
      "apogee_km": 328.0721507593589,
      "perigee_km": 326.80184682102754,
      "latitude_deg": 4.8326406661850046e-05,
      "longitude_deg": 82.0858808815182,
      "height_km": 328.8787566024103,
      "semi_major_axis_km": 6705.5739987901925,
      "eccentricity": 9.472e-05,
      "inclination_deg": 53.1575,
      "raan_deg": 100.3191,
      "arg_perigee_deg": 145.4718,
      "mean_anomaly_deg": 214.6367,
      "mean_motion_rev_day": 15.81061716
    },
    {
      "epoch": "2026-03-29T00:57:26.011296Z",
      "apogee_km": 328.7336762531295,
      "perigee_km": 326.1144840952147,
      "latitude_deg": -6.138624577596074e-05,
      "longitude_deg": -103.025618906486,
      "height_km": 328.5478654413829,
      "semi_major_axis_km": 6705.561080174172,
      "eccentricity": 0.0001953,
      "inclination_deg": 53.1565,
      "raan_deg": 97.7845,
      "arg_perigee_deg": 99.1068,
      "mean_anomaly_deg": 261.0175,
      "mean_motion_rev_day": 15.81066285
    },
    {
      "epoch": "2026-03-30T02:45:02.976192Z",
      "apogee_km": 327.99964576240836,
      "perigee_km": 325.6033007520664,
      "latitude_deg": 4.2306576421338866e-06,
      "longitude_deg": -136.37499536494528,
      "height_km": 328.8967057997714,
      "semi_major_axis_km": 6704.938473257237,
      "eccentricity": 0.0001787,
      "inclination_deg": 53.1571,
      "raan_deg": 92.3984,
      "arg_perigee_deg": 169.0753,
      "mean_anomaly_deg": 191.0309,
      "mean_motion_rev_day": 15.81286512
    },
    {
      "epoch": "2026-03-30T05:47:07.273824Z",
      "apogee_km": 328.2771256109618,
      "perigee_km": 327.2776761286559,
      "latitude_deg": -2.9160641398759034e-05,
      "longitude_deg": 177.34834950264252,
      "height_km": 328.5714022502877,
      "semi_major_axis_km": 6705.914400869809,
      "eccentricity": 7.452e-05,
      "inclination_deg": 53.1569,
      "raan_deg": 91.7643,
      "arg_perigee_deg": 75.6135,
      "mean_anomaly_deg": 284.497,
      "mean_motion_rev_day": 15.80941332
    },
    {
      "epoch": "2026-03-30T11:51:15.233184Z",
      "apogee_km": 328.41238787471866,
      "perigee_km": 326.2939894143228,
      "latitude_deg": -6.183170783520009e-05,
      "longitude_deg": 84.79882150644711,
      "height_km": 327.4401363242172,
      "semi_major_axis_km": 6705.4901886445205,
      "eccentricity": 0.00015796,
      "inclination_deg": 53.1567,
      "raan_deg": 90.4972,
      "arg_perigee_deg": 38.3263,
      "mean_anomaly_deg": 321.7871,
      "mean_motion_rev_day": 15.81091358
    },
    {
      "epoch": "2026-03-31T20:00:01.999008Z",
      "apogee_km": 338.12094604466984,
      "perigee_km": 337.1162690057836,
      "latitude_deg": 45.39082318743975,
      "longitude_deg": 3.6252873725818477,
      "height_km": 342.01467411774024,
      "semi_major_axis_km": 6715.755607525227,
      "eccentricity": 7.48e-05,
      "inclination_deg": 53.1583,
      "raan_deg": 83.7915,
      "arg_perigee_deg": 106.6338,
      "mean_anomaly_deg": 315.9138,
      "mean_motion_rev_day": 15.7746756
    },
    {
      "epoch": "2026-04-01T20:00:01.999008Z",
      "apogee_km": 344.88282197771423,
      "perigee_km": 343.2950322137349,
      "latitude_deg": -16.946724409666203,
      "longitude_deg": -64.50419117179425,
      "height_km": 349.1254738337584,
      "semi_major_axis_km": 6722.225927095725,
      "eccentricity": 0.0001181,
      "inclination_deg": 53.1596,
      "raan_deg": 78.8158,
      "arg_perigee_deg": 101.0622,
      "mean_anomaly_deg": 237.8126,
      "mean_motion_rev_day": 15.75190577
    },
    {
      "epoch": "2026-04-02T20:00:01.999008Z",
      "apogee_km": 344.5554460263411,
      "perigee_km": 343.13038628411687,
      "latitude_deg": -50.12596708445256,
      "longitude_deg": -174.23593621974462,
      "height_km": 361.6327420281886,
      "semi_major_axis_km": 6721.979916155229,
      "eccentricity": 0.000106,
      "inclination_deg": 53.1596,
      "raan_deg": 73.8455,
      "arg_perigee_deg": 117.47,
      "mean_anomaly_deg": 135.5649,
      "mean_motion_rev_day": 15.75277051
    },
    {
      "epoch": "2026-04-02T22:00:01.999584Z",
      "apogee_km": 344.7389256081615,
      "perigee_km": 343.2257765422346,
      "latitude_deg": 4.657689233913589,
      "longitude_deg": -84.35584614269995,
      "height_km": 344.77071732141604,
      "semi_major_axis_km": 6722.119351075197,
      "eccentricity": 0.00011255,
      "inclination_deg": 53.1598,
      "raan_deg": 73.4313,
      "arg_perigee_deg": 123.9705,
      "mean_anomaly_deg": 241.9296,
      "mean_motion_rev_day": 15.75228038
    },
    {
      "epoch": "2026-04-03T20:00:01.999008Z",
      "apogee_km": 344.676172729819,
      "perigee_km": 343.01181023632853,
      "latitude_deg": 10.344721723174251,
      "longitude_deg": 108.89006167466161,
      "height_km": 343.57928405416806,
      "semi_major_axis_km": 6721.980991483074,
      "eccentricity": 0.0001238,
      "inclination_deg": 53.1602,
      "raan_deg": 68.8759,
      "arg_perigee_deg": 107.9041,
      "mean_anomaly_deg": 59.0978,
      "mean_motion_rev_day": 15.75276673
    }
  ]
}